OBJECT_NAME,OBJECT_ID,EPOCH,MEAN_MOTION,ECCENTRICITY,INCLINATION,RA_OF_ASC_NODE,ARG_OF_PERICENTER,MEAN_ANOMALY,EPHEMERIS_TYPE,CLASSIFICATION_TYPE,NORAD_CAT_ID,ELEMENT_SET_NO,REV_AT_EPOCH,BSTAR,MEAN_MOTION_DOT,MEAN_MOTION_DDOT
HAWK-6B,2023-011A,2026-06-30T22:53:07.224576,15.23051351,.000184,40.4986,271.7732,152.5217,207.5689,0,U,55324,999,18994,.1998E-3,.4612E-4,0
HAWK-6C,2023-011C,2026-06-30T22:52:13.146816,15.23048632,.000224,40.4972,268.6136,129.6352,230.4656,0,U,55326,999,18995,.1974E-3,.4553E-4,0
HAWK-6A,2023-011D,2026-06-30T22:52:16.309056,15.23049689,.0001818,40.4981,270.2394,127.1233,232.9743,0,U,55327,999,18995,.20313E-3,.4692E-4,0
HAWK-7A,2023-054P,2026-06-30T22:24:03.738240,15.27501484,.0003109,97.2687,68.9216,24.4171,335.7215,0,U,56191,999,17912,.22876E-3,.6083E-4,0
HAWK-7B,2023-054R,2026-06-30T17:40:58.016640,15.27496908,.00028238,97.2714,66.9987,43.6817,316.4646,0,U,56193,999,17909,.20945365E-3,.5563E-4,0
HAWK-7C,2023-054Y,2026-07-01T03:06:47.672352,15.27503455,.000254,97.2689,68.1460,31.7817,328.3576,0,U,56200,999,17915,.25519E-3,.6795E-4,0
