HAWK-6B                 
1 55324U 23011A   26181.95355584  .00004612  00000+0  19980-3 0  9990
2 55324  40.4986 271.7732 0001840 152.5217 207.5689 15.23051351189941
HAWK-6C                 
1 55326U 23011C   26181.95292994  .00004553  00000+0  19740-3 0  9995
2 55326  40.4972 268.6136 0002240 129.6352 230.4656 15.23048632189959
HAWK-6A                 
1 55327U 23011D   26181.95296654  .00004692  00000+0  20313-3 0  9995
2 55327  40.4981 270.2394 0001818 127.1233 232.9743 15.23049689189953
HAWK-7A                 
1 56191U 23054P   26181.93337660  .00006083  00000+0  22876-3 0  9995
2 56191  97.2687  68.9216 0003109  24.4171 335.7215 15.27501484179120
HAWK-7B                 
1 56193U 23054R   26181.73678260  .00005563  00000+0  20945-3 0  9996
2 56193  97.2714  66.9987 0002823  43.6817 316.4646 15.27496908179092
HAWK-7C                 
1 56200U 23054Y   26182.12971843  .00006795  00000+0  25519-3 0  9992
2 56200  97.2689  68.1460 0002540  31.7817 328.3576 15.27503455179153
